ZHUHAI-1 02 (CAS-4B)    
1 42759U 17034B   23143.76494409  .00010031  00000+0  50771-3 0  9995
2 42759  43.0154 251.4151 0011815 301.3115  58.6575 15.17067225327920
ZHUHAI-1 01 (CAS-4A)    
1 42761U 17034D   23143.97865244  .00008206  00000+0  41731-3 0  9997
2 42761  43.0149 248.7607 0012607 304.0525  55.9125 15.17080403327965
MAX VALIER SAT          
1 42778U 17036P   23143.90322662  .00021125  00000+0  56955-3 0  9991
2 42778  97.1570 179.3371 0009103 173.7243 186.4118 15.37787532328998
RADFXSAT (FOX-1B)       
1 43017U 17073E   23143.94388016  .00005698  00000+0  40021-3 0  9992
2 43017  97.6329  29.2446 0235245 149.0023 212.5324 14.85759744297584
FOX-1D (AO-92)          
1 43137U 18004AC  23143.78534027  .00028442  00000+0  61425-3 0  9990
2 43137  97.3289 222.7427 0005745 211.1206 148.9703 15.44475006298533
DIWATA-2B               
1 43678U 18084H   23144.20167637  .00001916  00000+0  18837-3 0  9991
2 43678  98.0198 287.6940 0008463 236.2299 123.8114 14.93352591248685
ES'HAIL 2               
1 43700U 18090A   23143.95300427  .00000148  00000+0  00000+0 0  9996
2 43700   0.0152 341.7534 0001304 110.2932 158.1124  1.00272038 16447
FOX-1CLIFF (AO-95)      
1 43770U 18099N   23144.13934918  .00004669  00000+0  38322-3 0  9995
2 43770  97.5766 206.3280 0011256 205.7919 154.2745 14.99632452244005
ITASAT 1                
1 43786U 18099AE  23144.13661325  .00004650  00000+0  38454-3 0  9997
2 43786  97.5795 207.3567 0012686 193.4549 166.6338 14.99336554244046
JY1SAT (JO-97)          
1 43803U 18099AX  23143.91157588  .00005886  00000+0  47008-3 0  9990
2 43803  97.5686 207.1085 0012586 173.8109 186.3273 15.00569421244053
UWE-4                   
1 43880U 18111E   23143.70850193  .00005243  00000+0  40436-3 0  9994
2 43880  97.6336  49.2812 0015759 254.3717 105.5769 15.01930060240690
NEXUS (FO-99)           
1 43937U 19003F   23144.04602261  .00053284  00000+0  92836-3 0  9996
2 43937  97.0881 171.5915 0011600  15.9136 344.2479 15.50504991242306
JAISAT-1                
1 44419U 19038F   23143.89289371  .00022821  00000+0  80291-3 0  9990
2 44419  97.6737 124.8274 0016071  37.1431 323.0917 15.29225958214825
DUCHIFAT-3              
1 44854U 19089C   23143.94183553  .00007307  00000+0  49748-3 0  9994
2 44854  36.9612 236.1487 0008376 122.1190 238.0367 15.05912467189181
CAS-6 (TIANQIN 1)       
1 44881U 19093C   23144.20125310  .00001247  00000+0  16162-3 0  9997
2 44881  97.8616 223.0609 0015454 151.7610 208.4444 14.82485733185247
RS-44 & BREEZE-KM R/B   
1 44909U 19096E   23143.90762768  .00000022  00000+0  48061-4 0  9995
2 44909  82.5233   4.0824 0216425 243.6379 114.2358 12.79720724159058
BY70-2                  
1 45857U 20042B   23144.16913690  .00018811  00000+0  19679-2 0  9998
2 45857  97.9249 224.0014 0010219  93.9563 266.2822 14.89639341155964
SALSAT                  
1 46495U 20068K   23143.82902019  .00003623  00000+0  24226-3 0  9990
2 46495  97.7689  91.5813 0015004 196.1553 163.9198 15.07530592145401
RADFXSAT-2 (AO-109)     
1 47311U 21002C   23144.00065271  .00020710  00000+0  55639-3 0  9996
2 47311  60.6794 151.4376 0016140 161.6376 198.5304 15.37854449130575
UVSQ-SAT                
1 47438U 21006AB  23143.73792796  .00013490  00000+0  56344-3 0  9999
2 47438  97.3853 201.2075 0010993 160.6892 199.4764 15.23698763128926
DIY-1 (ARDUIQUBE)       
1 47963U 21022AH  23143.70771825  .00159715  00000+0  25295-2 0  9998
2 47963  97.4985  51.0938 0009459  67.4153 292.8099 15.52805567118780
XW-3 (CAS-9)            
1 50466U 21131B   23144.17939634  .00000749  00000+0  25770-3 0  9998
2 50466  98.5515 225.7992 0003945 195.0225 165.0846 14.38891970 73906
TEVEL-3                 
1 50988U 22002E   23144.15828803  .00018069  00000+0  74191-3 0  9993
2 50988  97.4337 211.3022 0006297 323.9015  36.1796 15.24249595 75104
TEVEL-8                 
1 50989U 22002F   23144.11035369  .00017077  00000+0  70287-3 0  9997
2 50989  97.4354 211.3111 0006275 322.9392  37.1412 15.24180826 75091
TEVEL-5                 
1 50998U 22002Q   23144.11557981  .00018552  00000+0  74382-3 0  9995
2 50998  97.4332 211.6157 0007374 316.1034  43.9617 15.25037104 75126
TEVEL-6                 
1 50999U 22002R   23144.17971465  .00019704  00000+0  78963-3 0  9998
2 50999  97.4330 211.6744 0007396 315.6796  44.3849 15.25041505 75133
TEVEL-1                 
1 51013U 22002AF  23144.10172875  .00017376  00000+0  71464-3 0  9999
2 51013  97.4333 211.1925 0006194 323.7564  36.3253 15.24202154 75091
TEVEL-7                 
1 51062U 22002CG  23144.11161494  .00018075  00000+0  74328-3 0  9998
2 51062  97.4350 211.2862 0006256 322.2242  37.8556 15.24197811 75096
TEVEL-4                 
1 51063U 22002CH  23144.05125345  .00018059  00000+0  74376-3 0  9992
2 51063  97.4350 211.2116 0006231 322.5397  37.5406 15.24146819 75088
TEVEL-2                 
1 51069U 22002CP  23144.16013881  .00018067  00000+0  74182-3 0  9995
2 51069  97.4334 211.2764 0006244 323.3524  36.7286 15.24249921 75108
GREENCUBE               
1 53106U 22080B   23143.46060132 -.00000003  00000+0  00000+0 0  9994
2 53106  70.1622 328.3166 0008351 190.4810 169.5677  6.42557191 20164
RS29S (SXC3-2110 CYCLO*)
1 53373U 22096D   23144.06951150  .00028876  00000+0  78199-3 0  9998
2 53373  97.4153  50.1114 0002202 110.1765 249.9717 15.37629450 43986
RS32S (SXC3-212 MONITO*)
1 53374U 22096E   23144.09104495  .00027631  00000+0  76724-3 0  9994
2 53374  97.4133  50.0481 0002206 124.0224 236.1230 15.36860565 43980
RS34S (SXC3-218 KUZBAS*)
1 53375U 22096F   23144.14833194  .00023707  00000+0  69665-3 0  9992
2 53375  97.4158  49.8565 0002167 123.4530 236.6921 15.35115890 43970
RS23S (SXC3-21 UTMN)    
1 53376U 22096G   23144.17888328  .00023959  00000+0  69286-3 0  9993
2 53376  97.4153  49.9627 0002133 115.0364 245.1101 15.35618096 43983
RS28S (SXC3-214 MIET-A*)
1 53377U 22096H   23144.08706984  .00018992  00000+0  56469-3 0  9991
2 53377  97.4163  49.7915 0002048 123.7126 236.4312 15.34791621 43960
RS26S (KAI-1)           
1 53378U 22096J   23144.10431720  .00017431  00000+0  54056-3 0  9995
2 53378  97.4177  49.6276 0002155 123.1979 236.9470 15.33472739 43958
RS19S (SXC3-219 ISOI)   
1 53381U 22096M   23144.04718108  .00019096  00000+0  55403-3 0  9996
2 53381  97.4153  49.9816 0005189 124.8494 235.3238 15.35552589 43970
RS21S (CUBESX-HSE-2)    
1 53383U 22096P   23144.09160728  .00023202  00000+0  66406-3 0  9991
2 53383  97.4156  50.0849 0005642 127.1360 233.0400 15.35937161 43986
RS30S (SXC3-217 SIREN)  
1 53384U 22096Q   23144.23117757  .00020069  00000+0  59999-3 0  9999
2 53384  97.4168  50.0614 0005646 124.7033 235.4743 15.34593841 43993
RS20S (GEOSCAN-EDELVEIS)
1 53385U 22096R   23144.05982193  .00029587  00000+0  76341-3 0  9998
2 53385  97.4148  50.5654 0006068 124.8253 235.3564 15.39101652 44042
RS33S (SXC3-215 VIZARD) 
1 53386U 22096S   23144.09329555  .00036204  00000+0  83852-3 0  9999
2 53386  97.4144  51.1276 0006787 124.3991 235.7899 15.42334619 44071
CAS-5A (FO-118)         
1 54684U 22167C   23144.08117885  .00010877  00000+0  60884-3 0  9998
2 54684  97.5597 281.8384 0014361  62.1768 298.0916 15.13528491 25034
